OBJECT_NAME,OBJECT_ID,EPOCH,MEAN_MOTION,ECCENTRICITY,INCLINATION,RA_OF_ASC_NODE,ARG_OF_PERICENTER,MEAN_ANOMALY,EPHEMERIS_TYPE,CLASSIFICATION_TYPE,NORAD_CAT_ID,ELEMENT_SET_NO,REV_AT_EPOCH,BSTAR,MEAN_MOTION_DOT,MEAN_MOTION_DDOT
STARLINK-1329,2020-025A,2026-06-26T11:32:50.146080,15.75859215,.0002409,53.0397,264.6900,320.7652,39.3192,0,U,45531,999,34252,.45729E-3,.7201E-3,0
STARLINK-1338,2020-025B,2026-06-27T00:00:02.999808,15.73079932,.00020147,53.0433,269.3932,53.8747,274.5700,0,U,45532,999,594,-.27813336E-3,-.39284E-3,0
STARLINK-1350,2020-025E,2026-06-26T20:55:35.087232,15.38855038,.00013621,53.0705,239.3493,46.0952,314.0164,0,U,45535,999,34295,.10635347E-2,.41318E-3,0
STARLINK-1362,2020-025H,2026-06-26T18:34:05.236608,15.38971048,.00031108,53.1565,311.2174,271.8122,88.2526,0,U,45538,999,34192,-.90135431E-3,-.35532E-3,0
STARLINK-1368,2020-025K,2026-06-26T18:51:07.504992,15.39191453,.0002247,53.1569,311.5110,251.1132,108.9629,0,U,45540,999,34191,.14973498E-2,.5912E-3,0
STARLINK-1371,2020-025M,2026-06-27T00:00:02.999808,15.70324935,.00016566,53.0425,279.6799,52.2247,138.6362,0,U,45542,999,576,-.41841061E-3,-.52282E-3,0
STARLINK-1372,2020-025N,2026-06-26T19:16:34.217184,15.39629231,.00007771,53.1551,310.8615,244.7916,115.3009,0,U,45543,999,34102,.99455962E-3,.39601E-3,0
STARLINK-1373,2020-025P,2026-06-26T16:41:37.687776,15.71972194,.00021915,53.0440,276.0253,44.5079,315.6114,0,U,45544,999,34238,.44750169E-3,.59433E-3,0
STARLINK-1327,2020-025AA,2026-06-27T00:00:02.999808,15.73677614,.00018873,53.0398,251.8416,55.9612,263.9303,0,U,45555,999,588,-.20913972E-3,-.30485E-3,0
STARLINK-1356,2020-025AK,2026-06-26T22:42:25.050528,15.66820000,.00033013,53.0419,265.7823,4.6815,355.4230,0,U,45564,999,34254,.46064308E-3,.49321E-3,0
STARLINK-1357,2020-025AL,2026-06-26T09:56:32.611776,15.71644767,.0001803,53.0417,224.5083,159.1671,200.9420,0,U,45565,999,34308,.47075E-3,.61703E-3,0
STARLINK-1361,2020-025AN,2026-06-27T00:00:02.999808,15.70320078,.00019018,53.0407,263.7962,59.9418,276.9239,0,U,45567,999,591,-.16751119E-3,-.21362E-3,0
STARLINK-1376,2020-025AR,2026-06-26T13:55:56.085600,15.40103771,.0001027,53.1556,288.2588,233.8010,126.2900,0,U,45570,999,34222,.12154E-2,.49313E-3,0
STARLINK-1320,2020-025AT,2026-06-26T22:05:56.484960,15.93145909,.00083192,53.0364,158.3001,41.8063,318.3597,0,U,45572,999,34406,.63357029E-3,.226064E-2,.30517481E-4
STARLINK-1321,2020-025AU,2026-06-27T00:00:02.999808,15.70803859,.00016323,53.0408,247.6159,66.7122,254.0250,0,U,45573,999,575,.4860292E-4,.5569E-4,0
STARLINK-1331,2020-025AZ,2026-06-27T00:00:02.999808,15.70551804,.00014408,53.0451,254.5551,67.9251,107.2315,0,U,45578,999,581,-.55094857E-4,-.7504E-4,0
STARLINK-1333,2020-025BB,2026-06-26T17:31:48.147168,15.36965438,.00019317,53.1556,289.4753,306.8415,53.2411,0,U,45580,999,34222,.13696177E-2,.50188E-3,0
STARLINK-1335,2020-025BC,2026-06-26T16:11:02.983776,15.38706620,.00016268,53.1528,286.2275,231.7525,128.3334,0,U,45581,999,34225,.17244503E-2,.6714E-3,0
STARLINK-1337,2020-025BD,2026-06-26T21:43:52.694400,15.77390557,.0001756,53.0419,243.0490,84.4915,275.6305,0,U,45582,999,34285,.50425508E-3,.85195E-3,0
STARLINK-1347,2020-025BH,2026-06-26T12:37:45.110784,15.70612512,.0001246,53.0354,216.2744,26.1917,333.9162,0,U,45586,999,34319,.42417E-3,.53108E-3,0
STARLINK-1364,2020-025BL,2026-06-26T14:07:09.208128,15.71426817,.0003377,53.0405,252.5682,2.0257,358.0773,0,U,45589,999,34269,.41011E-3,.53136E-3,0
STARLINK-1365,2020-025BM,2026-06-27T00:00:02.999808,15.67021466,.00009259,53.0439,285.7804,53.5014,324.1778,0,U,45590,999,569,-.59082436E-3,-.6418E-3,0
XINGYUN-2 01,2020-028A,2026-06-26T22:30:20.210688,15.11844354,.00095241,97.4862,170.1448,159.8970,200.2637,0,U,45602,999,33631,.18703678E-3,.3136E-4,0
XINGYUN-2 02,2020-028B,2026-06-26T23:37:21.586368,15.11573285,.00093764,97.5069,183.8038,232.1780,127.8602,0,U,45603,999,33631,.14462736E-3,.2391E-4,0
COSMOS 2546,2020-031A,2026-06-24T11:55:21.519840,2.00604274,.70886295,63.1628,65.6923,266.3250,17.5451,0,U,45608,999,4461,0,-.28E-5,0
GAOFEN-9 02,2020-034B,2026-06-26T22:58:20.880768,15.26059359,.00134017,97.5755,335.4236,39.6094,320.6120,0,U,45625,999,33765,.31872976E-3,.8156E-4,0
STARLINK-1443,2020-035D,2026-06-26T13:33:33.928128,15.34115609,.0001229,53.1332,279.2904,42.4909,317.6188,0,U,45660,999,33542,.14567E-2,.48719E-3,0
STARLINK-1446,2020-035G,2026-06-26T18:24:37.779552,15.48743619,.00019884,53.0196,199.0941,328.9520,31.1370,0,U,45663,999,33654,.52745351E-3,.28421E-3,0
STARLINK-1448,2020-035J,2026-06-27T00:00:02.999808,15.74803173,.0001979,53.0411,237.8263,65.5288,340.8028,0,U,45665,999,598,.50069419E-4,.6901E-4,0
STARLINK-1451,2020-035M,2026-06-26T12:03:08.373600,15.15088708,.0000459,53.0501,292.8229,263.9387,96.1554,0,U,45668,999,33521,.10973E-2,.20537E-3,0
