STARLINK-1329           
1 45531U 20025A   26177.48113595  .00072010  00000+0  45729-3 0  9995
2 45531  53.0397 264.6900 0002409 320.7652  39.3192 15.75859215342525
STARLINK-1338           
1 45532U 20025B   26178.00003472 -.00039284  00000+0 -27813-3 0  9999
2 45532  53.0433 269.3932 0002014  53.8747 274.5700 15.73079932  5943
STARLINK-1350           
1 45535U 20025E   26177.87193388  .00041318  00000+0  10635-2 0  9994
2 45535  53.0705 239.3493 0001362  46.0952 314.0164 15.38855038342953
STARLINK-1362           
1 45538U 20025H   26177.77367172 -.00035532  00000+0 -90135-3 0  9997
2 45538  53.1565 311.2174 0003110 271.8122  88.2526 15.38971048341925
STARLINK-1368           
1 45540U 20025K   26177.78550353  .00059120  00000+0  14973-2 0  9998
2 45540  53.1569 311.5110 0002247 251.1132 108.9629 15.39191453341915
STARLINK-1371           
1 45542U 20025M   26178.00003472 -.00052282  00000+0 -41841-3 0  9990
2 45542  53.0425 279.6799 0001656  52.2247 138.6362 15.70324935  5766
STARLINK-1372           
1 45543U 20025N   26177.80317381  .00039601  00000+0  99456-3 0  9998
2 45543  53.1551 310.8615 0000777 244.7916 115.3009 15.39629231341021
STARLINK-1373           
1 45544U 20025P   26177.69557509  .00059433  00000+0  44750-3 0  9996
2 45544  53.0440 276.0253 0002191  44.5079 315.6114 15.71972194342384
STARLINK-1327           
1 45555U 20025AA  26178.00003472 -.00030485  00000+0 -20914-3 0  9993
2 45555  53.0398 251.8416 0001887  55.9612 263.9303 15.73677614  5887
STARLINK-1356           
1 45564U 20025AK  26177.94612327  .00049321  00000+0  46064-3 0  9991
2 45564  53.0419 265.7823 0003301   4.6815 355.4230 15.66820000342540
STARLINK-1357           
1 45565U 20025AL  26177.41426634  .00061703  00000+0  47075-3 0  9999
2 45565  53.0417 224.5083 0001803 159.1671 200.9420 15.71644767343086
STARLINK-1361           
1 45567U 20025AN  26178.00003472 -.00021362  00000+0 -16751-3 0  9994
2 45567  53.0407 263.7962 0001901  59.9418 276.9239 15.70320078  5916
STARLINK-1376           
1 45570U 20025AR  26177.58051025  .00049313  00000+0  12154-2 0  9993
2 45570  53.1556 288.2588 0001027 233.8010 126.2900 15.40103771342228
STARLINK-1320           
1 45572U 20025AT  26177.92079265  .00226064  30517-4  63357-3 0  9992
2 45572  53.0364 158.3001 0008319  41.8063 318.3597 15.93145909344066
STARLINK-1321           
1 45573U 20025AU  26178.00003472  .00005569  00000+0  48603-4 0  9992
2 45573  53.0408 247.6159 0001632  66.7122 254.0250 15.70803859  5757
STARLINK-1331           
1 45578U 20025AZ  26178.00003472 -.00007504  00000+0 -55095-4 0  9993
2 45578  53.0451 254.5551 0001440  67.9251 107.2315 15.70551804  5814
STARLINK-1333           
1 45580U 20025BB  26177.73041837  .00050188  00000+0  13696-2 0  9995
2 45580  53.1556 289.4753 0001931 306.8415  53.2411 15.36965438342227
STARLINK-1335           
1 45581U 20025BC  26177.67434009  .00067140  00000+0  17245-2 0  9996
2 45581  53.1528 286.2275 0001626 231.7525 128.3334 15.38706620342259
STARLINK-1337           
1 45582U 20025BD  26177.90547100  .00085195  00000+0  50426-3 0  9999
2 45582  53.0419 243.0490 0001756  84.4915 275.6305 15.77390557342859
STARLINK-1347           
1 45586U 20025BH  26177.52621656  .00053108  00000+0  42417-3 0  9990
2 45586  53.0354 216.2744 0001246  26.1917 333.9162 15.70612512343192
STARLINK-1364           
1 45589U 20025BL  26177.58830102  .00053136  00000+0  41011-3 0  9997
2 45589  53.0405 252.5682 0003377   2.0257 358.0773 15.71426817342695
STARLINK-1365           
1 45590U 20025BM  26178.00003472 -.00064180  00000+0 -59082-3 0  9999
2 45590  53.0439 285.7804 0000925  53.5014 324.1778 15.67021466  5697
XINGYUN-2 01            
1 45602U 20028A   26177.93773392  .00003136  00000+0  18704-3 0  9990
2 45602  97.4862 170.1448 0009524 159.8970 200.2637 15.11844354336311
XINGYUN-2 02            
1 45603U 20028B   26177.98427762  .00002391  00000+0  14463-3 0  9993
2 45603  97.5069 183.8038 0009376 232.1780 127.8602 15.11573285336315
COSMOS 2546             
1 45608U 20031A   26175.49677685 -.00000280  00000+0  00000+0 0  9991
2 45608  63.1628  65.6923 7088629 266.3250  17.5451  2.00604274 44619
GAOFEN-9 02             
1 45625U 20034B   26177.95718612  .00008156  00000+0  31873-3 0  9997
2 45625  97.5755 335.4236 0013401  39.6094 320.6120 15.26059359337651
STARLINK-1443           
1 45660U 20035D   26177.56497602  .00048719  00000+0  14567-2 0  9996
2 45660  53.1332 279.2904 0001229  42.4909 317.6188 15.34115609335421
STARLINK-1446           
1 45663U 20035G   26177.76710393  .00028421  00000+0  52745-3 0  9995
2 45663  53.0196 199.0941 0001988 328.9520  31.1370 15.48743619336542
STARLINK-1448           
1 45665U 20035J   26178.00003472  .00006901  00000+0  50069-4 0  9995
2 45665  53.0411 237.8263 0001979  65.5288 340.8028 15.74803173  5989
STARLINK-1451           
1 45668U 20035M   26177.50218025  .00020537  00000+0  10973-2 0  9993
2 45668  53.0501 292.8229 0000459 263.9387  96.1554 15.15088708335212
